OSCAR III [-]           
1 01293U 65016F   09059.20711476 -.00000089  00000-0 -21793-4 0  4668
2 01293  70.0702  46.9383 0019745 307.6207  52.3111 14.04687519244500
AO-5 [-]                
1 04321U 70008B   09058.91122459 -.00000031  00000-0  10000-3 0  1340
2 04321 102.1332  67.9535 0027740 186.9759 173.0927 12.52155945787082
AO-6 [-]                
1 06236U 72082B   09058.93752120 -.00000027  00000-0  10000-3 0  1230
2 06236 101.4004  76.7084 0004050 104.2109 255.9413 12.53076615663726
AO-7 [P]                
1 07530U 74089B   09059.63189567 -.00000027  00000-0  10000-3 0  4147
2 07530 101.4393  88.2523 0012012 120.6214 239.6046 12.53575372569110
AO-8 [-]                
1 10703U 78026B   09059.69408221 -.00000023  00000-0  13143-4 0  4233
2 10703  98.8448 108.8020 0007588 109.5611 250.6374 13.98828260580854
AO-10 [-]               
1 14129U 83058B   09058.49128964  .00000015  00000-0  10000-3 0  6274
2 14129  25.9859 169.3453 5976411 201.6670 115.5759  2.05869272165391
UO-11 [P]               
1 14781U 84021B   09058.86987998 -.00000119  00000-0 -85883-5 0  8980
2 14781  98.1211 102.2670 0008752 336.6668  23.4186 14.79695680341662
FO-12 [-]               
1 16909U 86061B   09058.70032984 -.00000083  00000-0  10000-3 0  5285
2 16909  50.0129 138.4755 0010763 288.6655  71.3011 12.44452632 25344
UO-14 [-]               
1 20437U 90005B   09058.95208655 -.00000002  00000-0  14680-4 0  8616
2 20437  98.3251  21.4795 0010877 127.9146 232.3020 14.31537718997420
UO-15 [-]               
1 20438U 90005C   09059.43351835 -.00000027  00000-0  57128-5 0  3572
2 20438  98.3856  14.4814 0009891 153.9778 206.1897 14.30439738996927
AO-16 [P]               
1 20439U 90005D   09058.56012628 -.00000025  00000-0  58291-5 0  5448
2 20439  98.2651  32.0237 0011494 132.9671 227.2474 14.31816715997466
DO-17 [-]               
1 20440U 90005E   09059.70195447 -.00000017  00000-0  88479-5 0  2571
2 20440  98.2415  38.0910 0011725 125.7924 234.4348 14.32120067997760
WO-18 [-]               
1 20441U 90005F   09059.47772258 -.00000021  00000-0  75003-5 0  7633
2 20441  98.2485  36.4914 0012182 129.6755 230.5500 14.31884633997668
LO-19 [P]               
1 20442U 90005G   09058.49535888 -.00000025  00000-0  57015-5 0  4668
2 20442  98.2300  39.6404 0012658 131.1330 229.0928 14.32053506997619
FO-20 [-]               
1 20480U 90013C   09058.88603252 -.00000021  00000-0  19908-4 0   742
2 20480  99.0672 359.8845 0540703  57.7895 307.4452 12.83360446892888
AO-21 [-]               
1 21087U 91006A   09059.24061037  .00000045  00000-0  30829-4 0  2066
2 21087  82.9437 126.7397 0033795 226.7659 133.0674 13.75040017907448
RS-12 & RS-13 [-]       
1 21089U 91007A   09058.85055972  .00000010  00000-0 -54333-5 0   873
2 21089  82.9256 347.7852 0027672 275.1112  84.6882 13.74485070906171
UO-22 [-]               
1 21575U 91050B   09058.85928059 -.00000014  00000-0  93657-5 0  4922
2 21575  98.4347   9.3793 0007154 354.4348   5.6760 14.39665591924970
KO-23 [-]               
1 22077U 92052B   09059.14742673 -.00000037  00000-0  10000-3 0  6793
2 22077  66.0831 195.0181 0012173 306.1049  53.8842 12.86447676777491
AO-24 [-]               
1 22654U 93031B   09055.93977195 -.00000111  00000-0  10000-3 0  2401
2 22654   5.1580 339.5676 2878999 154.1683 223.7411  1.42205158 77528
AO-27 [+]               
1 22825U 93061C   09058.51589111  .00000001  00000-0  16896-4 0  1875
2 22825  98.4229  15.4669 0007699 223.7875 136.2698 14.29259362804247
IO-26 [P]               
1 22826U 93061D   09059.50528290 -.00000012  00000-0  11971-4 0  9079
2 22826  98.4162  17.2199 0008271 217.1427 142.9182 14.29510334804486
KO-25 [-]               
1 22828U 93061F   09058.93256160 -.00000007  00000-0  13793-4 0  1217
2 22828  98.4105  16.5972 0009786 191.6509 168.4445 14.29811503772677
PO-28 [+]               
1 22829U 93061G   09058.73682296 -.00000040  00000-0  66876-6 0  1588
2 22829  98.4056  17.5348 0009804 188.2948 171.8133 14.30209273804654
RS-15 [P]               
1 23439U 94085A   09058.53438714 -.00000039  00000-0  10000-3 0  1971
2 23439  64.8140  82.1356 0146115  72.8596 288.8269 11.27553125583759
FO-29 [P]               
1 24278U 96046B   09059.29221602 -.00000017  00000-0  21608-4 0  9827
2 24278  98.5709 307.8739 0349806 272.5325  83.5822 13.52942555619023
MO-30 [-]               
1 24305U 96052B   09059.56587211  .00000046  00000-0  32817-4 0   518
2 24305  82.9312  74.3819 0029408 193.9062 166.1290 13.73567741625761
TO-31 [-]               
1 25396U 98043C   09058.64915261 -.00000071  00000-0 -12964-4 0  3412
2 25396  98.3435  92.2575 0002649 173.2504 186.8716 14.23772364552718
GO-32 [P]               
1 25397U 98043D   09059.23822634  .00000054  00000-0  41765-4 0  8325
2 25397  98.3361  87.3624 0000958 161.6987 198.4220 14.23155921552638
SO-33 [P]               
1 25509U 98061B   09059.71627921  .00000049  00000-0 -13410-5 0  3973
2 25509  31.4311 305.8458 0354190 110.1182 253.7910 14.28242582540313
PO-34 [-]               
1 25520U 98064B   09058.93947650  .00000359  00000-0  78450-5 0  1949
2 25520  28.4606 266.4105 0005589 190.9193 169.1278 15.17301492572040
ARISS [+]               
1 25544U 98067A   09059.52201389  .00012647  00000-0  10235-3 0  3632
2 25544  51.6403 143.5254 0009605  72.9181 113.4289 15.71184241588859
SO-35 [-]               
1 25636U 99008C   09059.49884334  .00000028  00000-0  15438-4 0  2442
2 25636  96.4538 269.7615 0147205 205.7000 153.6826 14.43456516527428
UO-36 [-]               
1 25693U 99021A   09059.59380794  .00000048  00000-0  25729-4 0  8567
2 25693  64.5558  89.4586 0017619 206.4069 153.6142 14.78740505531788
OO-38 [-]               
1 26063U 00004C   09058.82002430 -.00000027  00000-0  10951-4 0  4447
2 26063 100.1908 185.5009 0036798 208.7953 151.1205 14.35856581476258
SO-41 [-]               
1 26545U 00057A   09059.53914598 -.00000082  00000-0  87585-5 0  1958
2 26545  64.5562  92.3541 0052702 295.0129  64.5505 14.80565619455116
MO-46 [-]               
1 26548U 00057D   09059.43251554 -.00000021  00000-0  15869-4 0  3327
2 26548  64.5566  57.3181 0049379 288.5659  71.0049 14.83342712455829
SO-42 [-]               
1 26549U 00057E   09059.82315889  .00000045  00000-0  25402-4 0  2736
2 26549  64.5569 107.5249 0055560 299.6400  59.9214 14.79422633454837
AO-40 [-]               
1 26609U 00072B   09058.05171133 -.00000191  00000-0  10000-3 0  1971
2 26609   8.8054  30.8732 7951995 179.6287 182.5183  1.25585123 38245
NO-44 [P]               
1 26931U 01043C   09059.28244749  .00000137  00000-0  85689-4 0  1096
2 26931  67.0549 344.9105 0005329 264.2804  95.7688 14.29549362387012
NO-45 [-]               
1 26932U 01043D   09058.90016922 -.00000071  00000-0  44388-5 0  1118
2 26932  67.0512 345.8193 0006821 241.5045 118.5369 14.29602539387008
BO-47 & BO-48 [-]       
1 27422U 02021B   09058.76223340  .00000063  00000-0  42172-4 0  9844
2 27422  98.5295 140.5202 0012327 181.0510 179.0648 14.28482462353784
AO-49 [-]               
1 27605U 02058A   09058.31204499 -.00000036  00000-0  16429-4 0  8501
2 27605  64.5608 346.3978 0077730 230.1401 129.2845 14.72387742332763
SO-50 [+]               
1 27607U 02058C   09059.30842900 -.00000027  00000-0  17932-4 0  8250
2 27607  64.5605 355.7705 0078025 229.0062 130.4273 14.71416888332652
DTUSAT [-]              
1 27842U 03031C   09059.52904301  .00000025  00000-0  31633-4 0  4988
2 27842  98.7089  71.2071 0010184  77.0388 283.1918 14.20968749293917
CO-55 [+]               
1 27844U 03031E   09058.96523695  .00000065  00000-0  50512-4 0  5218
2 27844  98.7153  69.6623 0010607  96.7368 263.5011 14.20624713293759
AAU CUBESAT [-]         
1 27846U 03031G   09058.96535269  .00000049  00000-0  42558-4 0  4357
2 27846  98.7090  70.6453 0010134  78.9737 281.2573 14.20969283293834
CANX-1 [-]              
1 27847U 03031H   09058.97261069  .00000059  00000-0  47258-4 0  4480
2 27847  98.7088  70.6451 0010194  79.2894 280.9428 14.20952910293782
CO-57 [+]               
1 27848U 03031J   09058.99805735  .00000021  00000-0  30133-4 0  4682
2 27848  98.7172  68.7585 0010547 101.3181 258.9188 14.20428338293725
RS-22 [+]               
1 27939U 03042A   09059.33893769  .00000113  00000-0  30637-4 0  7277
2 27939  97.9614 298.0699 0014550 114.0860 246.1865 14.63297542289651
AO-51 [+]               
1 28375U 04025K   09058.57414592  .00000005  00000-0  13888-4 0  3277
2 28375  98.0564  74.5486 0084791  97.3829 263.7009 14.40634171245177
VO-52 [+]               
1 28650U 05017B   09058.36923773  .00000130  00000-0  23023-4 0  1659
2 28650  97.7554 123.5165 0027722  30.5565 329.7234 14.81557152206385
UWE-1 [-]               
1 28892U 05043C   09059.38974777  .00000072  00000-0  24621-4 0  2762
2 28892  98.0696 312.4956 0016923 331.7424  28.2830 14.59710053177973
XO-53 [-]               
1 28894U 05043E   09058.73038748  .00000026  00000-0  15001-4 0  4001
2 28894  98.0712 312.1049 0017355 335.9117  24.1275 14.59656147177880
CO-58 [+]               
1 28895U 05043F   09059.21418591  .00000088  00000-0  27930-4 0  2431
2 28895  98.0732 312.8018 0017429 332.1097  27.9171 14.59745195177837
NCUBE-2 [-]             
1 28897U 05043H   09059.28537858  .00000087  00000-0  27625-4 0  7860
2 28897  98.0720 312.7864 0017003 333.4736  26.5663 14.59921525170136
CO-56 [P]               
1 28941U 06005C   09059.83502255  .00062597  37380-5  30678-3 0  8595
2 28941  98.1287 215.0246 0116678 178.9557 181.2077 15.72844404170151
PEHUENSAT 1 [+]         
1 29712U 07001D   09059.67738821  .00000456  00000-0  66372-4 0  2743
2 29712  97.8423 118.6202 0013019 268.7328  91.2388 14.80455267115411
DO-64 [+]               
1 32789U 08021G   09059.22921931  .00000530  00000-0  74137-4 0  3024
2 32789  97.9609 124.0575 0016214  29.8570 330.3556 14.81625660 45317
